PROGRESS-MS 32          
1 65586U 25204A   25304.16626396  .00017194  00000+0  31236-3 0  9995
2 65586  51.6343 353.2496 0004910 359.9780   0.1208 15.49645314   273
CYGNUS NG-23            
1 65616U 25208A   25304.16626396  .00017194  00000+0  31236-3 0  9993
2 65616  51.6343 353.2496 0004910 359.9780   0.1208 15.49645314   222
DRAGONFLY               
1 65729U 98067XH  25303.50784911  .00112343  00000+0  13910-2 0  9996
2 65729  51.6315 354.8560 0003187  57.7643 302.3658 15.59214003  6399
1998-067XJ              
1 65730U 98067XJ  25303.55225611  .00279505  00000+0  24996-2 0  9990
2 65730  51.6301 353.6483 0010662  34.1491 326.0189 15.66878286  6415
1998-067XK              
1 65731U 98067XK  25304.29975021  .00074627  00000+0  99292-3 0  9990
2 65731  51.6328 351.1457 0004843  37.3804 322.7525 15.57480844  6513
RSP-03                  
1 65732U 98067XL  25303.51903183  .00091589  00000+0  11796-2 0  9993
2 65732  51.6324 354.9314 0005540  34.6069 325.5283 15.58254261  6404
GHS-01                  
1 65733U 98067XM  25303.50046829  .00122030  00000+0  14721-2 0  9995
2 65733  51.6327 354.8083 0003628  54.3050 305.8280 15.59857540  6402
YOTSUBA-KULOVER         
1 65941U 98067XN  25304.20002539  .00061481  00000+0  96447-3 0  9992
2 65941  51.6335 352.7259 0002525 341.0736  19.0160 15.53087293  3239
BOTAN                   
1 65942U 98067XP  25303.55162490  .00085715  00000+0  13052-2 0  9999
2 65942  51.6336 355.8960 0004519 355.9022   4.1931 15.53757174  3133
E-KAGAKU-1              
1 65943U 98067XQ  25303.55613179  .00063292  00000+0  99541-3 0  9999
2 65943  51.6342 355.9257 0004269 345.4826  14.6041 15.52998589  3133
HRC MONOBLOCK CAMERA    
1 66052U 98067XR  25303.64523882  .00043574  00000+0  75388-3 0  9996
2 66052  51.6329 355.7701 0004337   6.6653 353.4393 15.50491510  2146
HTV-X1                  
1 66174U 25241A   25304.16626396  .00017194  00000+0  31236-3 0  9990
2 66174  51.6343 353.2496 0004910 359.9780   0.1208 15.49645314   772
